[
    {
        "Altitude(m)": 567696.8141135308,
        "Argument of Periapsis(deg)": -0.015068773855314936,
        "Eccentricity": 0.0,
        "Inclination(deg)": 97.0,
        "Latitude(deg)": -7.39413016279594,
        "Longitude(deg)": -10.644965408809798,
        "Mean Anomaly(deg)": -7.266404487208357,
        "RAAN(deg)": 90.00396470241235,
        "Satellite Name": "Starlink Shell 3 1811",
        "Satellite Number": 1811,
        "Semi-Major Axis(m)": 6938478.169268562,
        "Time(s)": 380
    },
    {
        "Altitude(m)": 567568.1847896756,
        "Argument of Periapsis(deg)": -0.015465320535717962,
        "Eccentricity": 0.0,
        "Inclination(deg)": 97.0,
        "Latitude(deg)": -6.77009410516207,
        "Longitude(deg)": -10.764032141394132,
        "Mean Anomaly(deg)": -6.640928289503284,
        "RAAN(deg)": 90.00406903668636,
        "Satellite Name": "Starlink Shell 3 1811",
        "Satellite Number": 1811,
        "Semi-Major Axis(m)": 6938478.169268562,
        "Time(s)": 390
    },
    {
        "Altitude(m)": 567443.6222453053,
        "Argument of Periapsis(deg)": -0.015861867216120987,
        "Eccentricity": 0.0,
        "Inclination(deg)": 97.0,
        "Latitude(deg)": -6.146010996304201,
        "Longitude(deg)": -10.882903449619741,
        "Mean Anomaly(deg)": -6.015452091798277,
        "RAAN(deg)": 90.00417337096036,
        "Satellite Name": "Starlink Shell 3 1811",
        "Satellite Number": 1811,
        "Semi-Major Axis(m)": 6938478.169268562,
        "Time(s)": 400
    },
    {
        "Altitude(m)": 567323.1576547167,
        "Argument of Periapsis(deg)": -0.01625841389652401,
        "Eccentricity": 0.0,
        "Inclination(deg)": 97.0,
        "Latitude(deg)": -5.521883814679744,
        "Longitude(deg)": -11.001597761835844,
        "Mean Anomaly(deg)": -5.389975894093231,
        "RAAN(deg)": 90.00427770523437,
        "Satellite Name": "Starlink Shell 3 1811",
        "Satellite Number": 1811,
        "Semi-Major Axis(m)": 6938478.169268562,
        "Time(s)": 410
    },
    {
        "Altitude(m)": 567206.8201803357,
        "Argument of Periapsis(deg)": -0.016654960576927034,
        "Eccentricity": 0.0,
        "Inclination(deg)": 97.0,
        "Latitude(deg)": -4.897715539897112,
        "Longitude(deg)": -11.120133844018646,
        "Mean Anomaly(deg)": -4.764499696388173,
        "RAAN(deg)": 90.00438203950837,
        "Satellite Name": "Starlink Shell 3 1811",
        "Satellite Number": 1811,
        "Semi-Major Axis(m)": 6938478.169268562,
        "Time(s)": 420
    },
    {
        "Altitude(m)": 567094.6369612397,
        "Argument of Periapsis(deg)": -0.01705150725733006,
        "Eccentricity": 0.0,
        "Inclination(deg)": 97.0,
        "Latitude(deg)": -4.273509152901784,
        "Longitude(deg)": -11.238530313544556,
        "Mean Anomaly(deg)": -4.139023498683114,
        "RAAN(deg)": 90.0044863737824,
        "Satellite Name": "Starlink Shell 3 1811",
        "Satellite Number": 1811,
        "Semi-Major Axis(m)": 6938478.169268562,
        "Time(s)": 430
    },
    {
        "Altitude(m)": 566986.6331027354,
        "Argument of Periapsis(deg)": -0.017448053937733084,
        "Eccentricity": 0.0,
        "Inclination(deg)": 97.0,
        "Latitude(deg)": -3.6492676361387937,
        "Longitude(deg)": -11.356805152667576,
        "Mean Anomaly(deg)": -3.5135473009780553,
        "RAAN(deg)": 90.0045907080564,
        "Satellite Name": "Starlink Shell 3 1811",
        "Satellite Number": 1811,
        "Semi-Major Axis(m)": 6938478.169268562,
        "Time(s)": 440
    },
    {
        "Altitude(m)": 566882.831666945,
        "Argument of Periapsis(deg)": -0.017844600618136107,
        "Eccentricity": 0.0,
        "Inclination(deg)": 97.0,
        "Latitude(deg)": -3.024993973696858,
        "Longitude(deg)": -11.474976734609855,
        "Mean Anomaly(deg)": -2.8880711032730475,
        "RAAN(deg)": 90.0046950423304,
        "Satellite Name": "Starlink Shell 3 1811",
        "Satellite Number": 1811,
        "Semi-Major Axis(m)": 6938478.169268562,
        "Time(s)": 450
    },
    {
        "Altitude(m)": 566783.2536644662,
        "Argument of Periapsis(deg)": -0.018241147298539134,
        "Eccentricity": 0.0,
        "Inclination(deg)": 97.0,
        "Latitude(deg)": -2.4006911514312743,
        "Longitude(deg)": -11.593063336555101,
        "Mean Anomaly(deg)": -2.262594905567989,
        "RAAN(deg)": 90.00479937660441,
        "Satellite Name": "Starlink Shell 3 1811",
        "Satellite Number": 1811,
        "Semi-Major Axis(m)": 6938478.169268562,
        "Time(s)": 460
    },
    {
        "Altitude(m)": 566687.9180470163,
        "Argument of Periapsis(deg)": -0.018637693978942157,
        "Eccentricity": 0.0,
        "Inclination(deg)": 97.0,
        "Latitude(deg)": -1.7763621570716206,
        "Longitude(deg)": -11.711082652452683,
        "Mean Anomaly(deg)": -1.6371187078629301,
        "RAAN(deg)": 90.00490371087842,
        "Satellite Name": "Starlink Shell 3 1811",
        "Satellite Number": 1811,
        "Semi-Major Axis(m)": 6938478.169268562,
        "Time(s)": 470
    },
    {
        "Altitude(m)": 566596.8417011746,
        "Argument of Periapsis(deg)": -0.019034240659345183,
        "Eccentricity": 0.0,
        "Inclination(deg)": 97.0,
        "Latitude(deg)": -1.1520099803186914,
        "Longitude(deg)": -11.829052818539887,
        "Mean Anomaly(deg)": -1.0116425101578717,
        "RAAN(deg)": 90.00500804515244,
        "Satellite Name": "Starlink Shell 3 1811",
        "Satellite Number": 1811,
        "Semi-Major Axis(m)": 6938478.169268562,
        "Time(s)": 480
    },
    {
        "Altitude(m)": 566510.0394431495,
        "Argument of Periapsis(deg)": -0.019430787339748207,
        "Eccentricity": 0.0,
        "Inclination(deg)": 97.0,
        "Latitude(deg)": -0.5276376129286953,
        "Longitude(deg)": -11.946991925869199,
        "Mean Anomaly(deg)": -0.38616631245282573,
        "RAAN(deg)": 90.00511237942644,
        "Satellite Name": "Starlink Shell 3 1811",
        "Satellite Number": 1811,
        "Semi-Major Axis(m)": 6938478.169268562,
        "Time(s)": 490
    },
    {
        "Altitude(m)": 566427.5240146121,
        "Argument of Periapsis(deg)": -0.019827334020151237,
        "Eccentricity": 0.0,
        "Inclination(deg)": 97.0,
        "Latitude(deg)": 0.09675195121039913,
        "Longitude(deg)": -12.064917532747835,
        "Mean Anomaly(deg)": 0.23930988525219474,
        "RAAN(deg)": 90.00521671370043,
        "Satellite Name": "Starlink Shell 3 1811",
        "Satellite Number": 1811,
        "Semi-Major Axis(m)": 6938478.169268562,
        "Time(s)": 500
    },
    {
        "Altitude(m)": 566349.3060795614,
        "Argument of Periapsis(deg)": -0.020223880700554257,
        "Eccentricity": 0.0,
        "Inclination(deg)": 97.0,
        "Latitude(deg)": 0.7211557160051767,
        "Longitude(deg)": -12.182847689994638,
        "Mean Anomaly(deg)": 0.8647860829572533,
        "RAAN(deg)": 90.00532104797446,
        "Satellite Name": "Starlink Shell 3 1811",
        "Satellite Number": 1811,
        "Semi-Major Axis(m)": 6938478.169268562,
        "Time(s)": 510
    },
    {
        "Altitude(m)": 566275.3942222835,
        "Argument of Periapsis(deg)": -0.020620427380957283,
        "Eccentricity": 0.0,
        "Inclination(deg)": 97.0,
        "Latitude(deg)": 1.345570683087986,
        "Longitude(deg)": -12.300800453301793,
        "Mean Anomaly(deg)": 1.4902622806623118,
        "RAAN(deg)": 90.00542538224846,
        "Satellite Name": "Starlink Shell 3 1811",
        "Satellite Number": 1811,
        "Semi-Major Axis(m)": 6938478.169268562,
        "Time(s)": 520
    },
    {
        "Altitude(m)": 566205.7949463271,
        "Argument of Periapsis(deg)": -0.021016974061360306,
        "Eccentricity": 0.0,
        "Inclination(deg)": 97.0,
        "Latitude(deg)": 1.969993851748565,
        "Longitude(deg)": -12.4187933956063,
        "Mean Anomaly(deg)": 2.115738478367358,
        "RAAN(deg)": 90.00552971652247,
        "Satellite Name": "Starlink Shell 3 1811",
        "Satellite Number": 1811,
        "Semi-Major Axis(m)": 6938478.169268562,
        "Time(s)": 530
    },
    {
        "Altitude(m)": 566140.5126745667,
        "Argument of Periapsis(deg)": -0.021413520741763333,
        "Eccentricity": 0.0,
        "Inclination(deg)": 97.0,
        "Latitude(deg)": 2.594422218860275,
        "Longitude(deg)": -12.536844632377777,
        "Mean Anomaly(deg)": 2.7412146760724165,
        "RAAN(deg)": 90.00563405079647,
        "Satellite Name": "Starlink Shell 3 1811",
        "Satellite Number": 1811,
        "Semi-Major Axis(m)": 6938478.169268562,
        "Time(s)": 540
    },
    {
        "Altitude(m)": 566079.5497503276,
        "Argument of Periapsis(deg)": -0.021810067422166356,
        "Eccentricity": 0.0,
        "Inclination(deg)": 97.0,
        "Latitude(deg)": 3.2188527788038725,
        "Longitude(deg)": -12.654972334108782,
        "Mean Anomaly(deg)": 3.366690873777424,
        "RAAN(deg)": 90.0057383850705,
        "Satellite Name": "Starlink Shell 3 1811",
        "Satellite Number": 1811,
        "Semi-Major Axis(m)": 6938478.169268562,
        "Time(s)": 550
    },
    {
        "Altitude(m)": 566022.9064395287,
        "Argument of Periapsis(deg)": -0.022206614102569383,
        "Eccentricity": 0.0,
        "Inclination(deg)": 97.0,
        "Latitude(deg)": 3.8432825233838335,
        "Longitude(deg)": -12.77319423891406,
        "Mean Anomaly(deg)": 3.9921670714824957,
        "RAAN(deg)": 90.0058427193445,
        "Satellite Name": "Starlink Shell 3 1811",
        "Satellite Number": 1811,
        "Semi-Major Axis(m)": 6938478.169268562,
        "Time(s)": 560
    }
]